<?xml version="1.0" encoding="UTF-8"?>
<gpx schemaLocation="http://www.topografix.com/GPX/1/1 http://www.topografix.com/GPX/1/1/gpx.xsd" version="1.1" creator="waymarkedtrails.org" xmlns="http://www.topografix.com/GPX/1/1" xmlns:xsi="http://www.w3.org/2001/XMLSchema-instance" xsi:schemaLocation="http://www.topografix.com/GPX/1/1 http://www.topografix.com/GPX/1/1/gpx.xsd http://www.garmin.com/xmlschemas/GpxExtensions/v3 http://www.garmin.com/xmlschemas/GpxExtensionsv3.xsd http://www.garmin.com/xmlschemas/TrackPointExtension/v1 http://www.garmin.com/xmlschemas/TrackPointExtensionv1.xsd http://www.garmin.com/xmlschemas/PowerExtension/v1 http://www.garmin.com/xmlschemas/PowerExtensionv1.xsd http://www.topografix.com/GPX/gpx_style/0/2 http://www.topografix.com/GPX/gpx_style/0/2/gpx_style.xsd" xmlns:gpxtpx="http://www.garmin.com/xmlschemas/TrackPointExtension/v1" xmlns:gpxx="http://www.garmin.com/xmlschemas/GpxExtensions/v3" xmlns:gpxpx="http://www.garmin.com/xmlschemas/PowerExtension/v1" xmlns:gpx_style="http://www.topografix.com/GPX/gpx_style/0/2">
  <metadata>
    <name>Monterosso - Levanto</name>
    <author>
      <name>gpx.studio</name>
      <link href="https://gpx.studio"/>
    </author>
    <link href="https://hiking.waymarkedtrails.org/#route?id=7798145&amp;type=relation">
      <text>WaymarkedTrails</text>
    </link>
    <time>2026-01-26T22:20:20.867Z</time>
  </metadata>
  <trk>
    <name>Monterosso - Levanto</name>
    <trkseg>
      <trkpt lat="44.1463817" lon="9.6550689">
        <ele>6.125187986451702</ele>
      </trkpt>
      <trkpt lat="44.1463744" lon="9.6550566">
        <ele>6.113877787469306</ele>
      </trkpt>
      <trkpt lat="44.1463215" lon="9.6549903">
        <ele>5.889574650955107</ele>
      </trkpt>
      <trkpt lat="44.1462948" lon="9.6549817">
        <ele>5.69712474209662</ele>
      </trkpt>
      <trkpt lat="44.1461857" lon="9.6549543">
        <ele>5.190238449880337</ele>
      </trkpt>
      <trkpt lat="44.1461709" lon="9.6549209">
        <ele>5.244506519288655</ele>
      </trkpt>
      <trkpt lat="44.1460974" lon="9.6548136">
        <ele>5.951277450379939</ele>
      </trkpt>
      <trkpt lat="44.1461137" lon="9.6547736">
        <ele>6.616380717419437</ele>
      </trkpt>
      <trkpt lat="44.1459025" lon="9.6545829">
        <ele>7.667320897005798</ele>
      </trkpt>
      <trkpt lat="44.1458161" lon="9.6544476">
        <ele>9.049492889774152</ele>
      </trkpt>
      <trkpt lat="44.1457593" lon="9.6544239">
        <ele>8.97391226328989</ele>
      </trkpt>
      <trkpt lat="44.1456472" lon="9.6545259">
        <ele>6.777714119775072</ele>
      </trkpt>
      <trkpt lat="44.1455939" lon="9.6544819">
        <ele>7.010711801722416</ele>
      </trkpt>
      <trkpt lat="44.1455892" lon="9.6544538">
        <ele>7.349806407468003</ele>
      </trkpt>
      <trkpt lat="44.1455353" lon="9.6544096">
        <ele>7.719039091903315</ele>
      </trkpt>
      <trkpt lat="44.1454319" lon="9.6543711">
        <ele>8.05839140890215</ele>
      </trkpt>
      <trkpt lat="44.1452638" lon="9.6543493">
        <ele>7.753763513523407</ele>
      </trkpt>
      <trkpt lat="44.145163" lon="9.6543392">
        <ele>7.3446810046706075</ele>
      </trkpt>
      <trkpt lat="44.1451147" lon="9.6543078">
        <ele>7.392158104945926</ele>
      </trkpt>
      <trkpt lat="44.1451022" lon="9.6542472">
        <ele>7.946413453762701</ele>
      </trkpt>
      <trkpt lat="44.1451075" lon="9.6541143">
        <ele>8.899558554889582</ele>
      </trkpt>
      <trkpt lat="44.1451277" lon="9.6539986">
        <ele>9.91162424074588</ele>
      </trkpt>
      <trkpt lat="44.145146" lon="9.6539153">
        <ele>10.768266864299616</ele>
      </trkpt>
      <trkpt lat="44.1451537" lon="9.6538583">
        <ele>11.4437645367239</ele>
      </trkpt>
      <trkpt lat="44.1451521" lon="9.6538144">
        <ele>11.885936133763673</ele>
      </trkpt>
      <trkpt lat="44.1451499" lon="9.6537531">
        <ele>12.550295261573911</ele>
      </trkpt>
      <trkpt lat="44.1451429" lon="9.6536498">
        <ele>13.540836412052215</ele>
      </trkpt>
      <trkpt lat="44.1451418" lon="9.6535739">
        <ele>14.037998489991992</ele>
      </trkpt>
      <trkpt lat="44.1451556" lon="9.6534272">
        <ele>14.498904224572357</ele>
      </trkpt>
      <trkpt lat="44.1451701" lon="9.6533601">
        <ele>15.005824591515271</ele>
      </trkpt>
      <trkpt lat="44.145207" lon="9.6533222">
        <ele>16.469609090519704</ele>
      </trkpt>
      <trkpt lat="44.1452647" lon="9.6532529">
        <ele>19.2541460777804</ele>
      </trkpt>
      <trkpt lat="44.1453671" lon="9.653175">
        <ele>25.054650820047367</ele>
      </trkpt>
      <trkpt lat="44.1453865" lon="9.6531323">
        <ele>26.64390372043975</ele>
      </trkpt>
      <trkpt lat="44.145401" lon="9.6530946">
        <ele>27.957586669177665</ele>
      </trkpt>
      <trkpt lat="44.1454189" lon="9.6530367">
        <ele>29.755236123550052</ele>
      </trkpt>
      <trkpt lat="44.1454206" lon="9.6529387">
        <ele>30.981157952418894</ele>
      </trkpt>
      <trkpt lat="44.1454139" lon="9.6528334">
        <ele>29.785482704032173</ele>
      </trkpt>
      <trkpt lat="44.1454281" lon="9.6527014">
        <ele>29.106119767114823</ele>
      </trkpt>
      <trkpt lat="44.1454981" lon="9.6524182">
        <ele>26.052495256823818</ele>
      </trkpt>
      <trkpt lat="44.1455106" lon="9.6523289">
        <ele>23.580006194368078</ele>
      </trkpt>
      <trkpt lat="44.1455129" lon="9.6521989">
        <ele>19.475718859636636</ele>
      </trkpt>
      <trkpt lat="44.1455381" lon="9.6520545">
        <ele>15.962520351699027</ele>
      </trkpt>
      <trkpt lat="44.1455928" lon="9.6517601">
        <ele>12.003144815346328</ele>
      </trkpt>
      <trkpt lat="44.145662" lon="9.6514963">
        <ele>11.718412521738092</ele>
      </trkpt>
      <trkpt lat="44.1457106" lon="9.6513296">
        <ele>12.115334712207222</ele>
      </trkpt>
      <trkpt lat="44.1457323" lon="9.6512531">
        <ele>12.028534394234086</ele>
      </trkpt>
      <trkpt lat="44.1457506" lon="9.6509713">
        <ele>9.37893986255482</ele>
      </trkpt>
      <trkpt lat="44.1457576" lon="9.6508277">
        <ele>8.162404466188526</ele>
      </trkpt>
      <trkpt lat="44.1457826" lon="9.650361">
        <ele>7.913991783014076</ele>
      </trkpt>
      <trkpt lat="44.1457693" lon="9.6498619">
        <ele>8.33922865130047</ele>
      </trkpt>
      <trkpt lat="44.1457699" lon="9.649784">
        <ele>8.508279372402804</ele>
      </trkpt>
      <trkpt lat="44.1457561" lon="9.6497002">
        <ele>8.408891857323624</ele>
      </trkpt>
      <trkpt lat="44.1457474" lon="9.6496643">
        <ele>8.348933794536743</ele>
      </trkpt>
      <trkpt lat="44.1457215" lon="9.6495581">
        <ele>8.151770547080133</ele>
      </trkpt>
      <trkpt lat="44.1456968" lon="9.6492438">
        <ele>8.163754613860982</ele>
      </trkpt>
      <trkpt lat="44.1456805" lon="9.6490721">
        <ele>8.198205684079936</ele>
      </trkpt>
      <trkpt lat="44.1456736" lon="9.6489998">
        <ele>8.21522218887828</ele>
      </trkpt>
      <trkpt lat="44.1456589" lon="9.6488426">
        <ele>8.209419834258213</ele>
      </trkpt>
      <trkpt lat="44.1456382" lon="9.6486327">
        <ele>8.625519676484373</ele>
      </trkpt>
      <trkpt lat="44.1456322" lon="9.6485945">
        <ele>8.777968555724183</ele>
      </trkpt>
      <trkpt lat="44.1456207" lon="9.6485209">
        <ele>9.057867482305845</ele>
      </trkpt>
      <trkpt lat="44.1454944" lon="9.6481204">
        <ele>10.98226841805213</ele>
      </trkpt>
      <trkpt lat="44.1454087" lon="9.6477771">
        <ele>11.435348556289398</ele>
      </trkpt>
      <trkpt lat="44.1453581" lon="9.6475384">
        <ele>10.895022166916597</ele>
      </trkpt>
      <trkpt lat="44.1453235" lon="9.6472488">
        <ele>10.065343269613313</ele>
      </trkpt>
      <trkpt lat="44.1452869" lon="9.6469424">
        <ele>8.582570452476634</ele>
      </trkpt>
      <trkpt lat="44.1452425" lon="9.6466544">
        <ele>6.624002939233101</ele>
      </trkpt>
      <trkpt lat="44.1452355" lon="9.646605">
        <ele>6.364987773409394</ele>
      </trkpt>
      <trkpt lat="44.1452279" lon="9.646571">
        <ele>6.16115466840596</ele>
      </trkpt>
      <trkpt lat="44.1451911" lon="9.6464507">
        <ele>5.45617965750447</ele>
      </trkpt>
      <trkpt lat="44.145173" lon="9.6463918">
        <ele>5.312673370261883</ele>
      </trkpt>
      <trkpt lat="44.1451488" lon="9.646314">
        <ele>5.20447703492902</ele>
      </trkpt>
      <trkpt lat="44.145136" lon="9.6461786">
        <ele>5.085048700869461</ele>
      </trkpt>
      <trkpt lat="44.1451462" lon="9.6461061">
        <ele>5.112823252566569</ele>
      </trkpt>
      <trkpt lat="44.1451285" lon="9.6460202">
        <ele>5.108253840124918</ele>
      </trkpt>
      <trkpt lat="44.1450738" lon="9.6457225">
        <ele>4.857449241519429</ele>
      </trkpt>
      <trkpt lat="44.1451065" lon="9.6456809">
        <ele>5.190189746768034</ele>
      </trkpt>
      <trkpt lat="44.145083" lon="9.6455408">
        <ele>5.054157212926885</ele>
      </trkpt>
      <trkpt lat="44.1450084" lon="9.645146">
        <ele>4.515381527971905</ele>
      </trkpt>
      <trkpt lat="44.1449853" lon="9.6450426">
        <ele>4.368804280227454</ele>
      </trkpt>
      <trkpt lat="44.1449195" lon="9.6448976">
        <ele>3.967843110688091</ele>
      </trkpt>
      <trkpt lat="44.1448778" lon="9.6447943">
        <ele>3.785732522145355</ele>
      </trkpt>
      <trkpt lat="44.1447672" lon="9.6444801">
        <ele>3.67937662757337</ele>
      </trkpt>
      <trkpt lat="44.1446236" lon="9.6439711">
        <ele>4.483805323905018</ele>
      </trkpt>
      <trkpt lat="44.144472" lon="9.6433061">
        <ele>17.104061227478788</ele>
      </trkpt>
      <trkpt lat="44.1443816" lon="9.6431147">
        <ele>21.09833750096212</ele>
      </trkpt>
      <trkpt lat="44.1443376" lon="9.6430554">
        <ele>21.344152183575794</ele>
      </trkpt>
      <trkpt lat="44.1443166" lon="9.6429705">
        <ele>22.582472310588404</ele>
      </trkpt>
      <trkpt lat="44.1442869" lon="9.642909">
        <ele>23.173691522306978</ele>
      </trkpt>
      <trkpt lat="44.1443085" lon="9.6428927">
        <ele>23.937583806852324</ele>
      </trkpt>
      <trkpt lat="44.1443357" lon="9.6429553">
        <ele>23.286673143879256</ele>
      </trkpt>
      <trkpt lat="44.1443646" lon="9.6429249">
        <ele>24.533030671734515</ele>
      </trkpt>
      <trkpt lat="44.1443372" lon="9.6428292">
        <ele>25.81468978263398</ele>
      </trkpt>
      <trkpt lat="44.1443529" lon="9.6428145">
        <ele>26.452996194824053</ele>
      </trkpt>
      <trkpt lat="44.1443768" lon="9.6428973">
        <ele>25.366549561639253</ele>
      </trkpt>
      <trkpt lat="44.1444008" lon="9.6428923">
        <ele>25.975090887398373</ele>
      </trkpt>
      <trkpt lat="44.1444394" lon="9.6427869">
        <ele>28.113556266184716</ele>
      </trkpt>
      <trkpt lat="44.1445005" lon="9.6428352">
        <ele>27.15934189419911</ele>
      </trkpt>
      <trkpt lat="44.1445378" lon="9.6427905">
        <ele>28.25663532185266</ele>
      </trkpt>
      <trkpt lat="44.1445574" lon="9.6427237">
        <ele>30.04974970729466</ele>
      </trkpt>
      <trkpt lat="44.1445783" lon="9.6426257">
        <ele>32.79191769057975</ele>
      </trkpt>
      <trkpt lat="44.1445831" lon="9.6425782">
        <ele>34.16166170185412</ele>
      </trkpt>
      <trkpt lat="44.1445648" lon="9.6425206">
        <ele>35.7300662435934</ele>
      </trkpt>
      <trkpt lat="44.1445324" lon="9.6424919">
        <ele>36.19026739669253</ele>
      </trkpt>
      <trkpt lat="44.144522" lon="9.6424335">
        <ele>38.0665898545791</ele>
      </trkpt>
      <trkpt lat="44.1445549" lon="9.6423458">
        <ele>41.76764025399517</ele>
      </trkpt>
      <trkpt lat="44.1447137" lon="9.6420869">
        <ele>51.607457927568774</ele>
      </trkpt>
      <trkpt lat="44.1450294" lon="9.6415406">
        <ele>62.16514246395248</ele>
      </trkpt>
      <trkpt lat="44.1451504" lon="9.6414026">
        <ele>63.84641026936527</ele>
      </trkpt>
      <trkpt lat="44.1451965" lon="9.6413237">
        <ele>65.11087545582345</ele>
      </trkpt>
      <trkpt lat="44.1451956" lon="9.6412309">
        <ele>67.61407355919451</ele>
      </trkpt>
      <trkpt lat="44.1451436" lon="9.6411909">
        <ele>69.57001224135026</ele>
      </trkpt>
      <trkpt lat="44.1450673" lon="9.641184">
        <ele>70.71052409517605</ele>
      </trkpt>
      <trkpt lat="44.1446244" lon="9.6415788">
        <ele>63.71891480065021</ele>
      </trkpt>
      <trkpt lat="44.144537" lon="9.6416303">
        <ele>61.81301444630299</ele>
      </trkpt>
      <trkpt lat="44.1444526" lon="9.6416659">
        <ele>60.00024076031645</ele>
      </trkpt>
      <trkpt lat="44.144405" lon="9.6416449">
        <ele>59.92828204016923</ele>
      </trkpt>
      <trkpt lat="44.1443924" lon="9.641585">
        <ele>61.102175267206405</ele>
      </trkpt>
      <trkpt lat="44.1443667" lon="9.6415577">
        <ele>61.062143123369324</ele>
      </trkpt>
      <trkpt lat="44.1443686" lon="9.6415068">
        <ele>62.11508188845573</ele>
      </trkpt>
      <trkpt lat="44.1444373" lon="9.6413865">
        <ele>65.15020396648976</ele>
      </trkpt>
      <trkpt lat="44.1445003" lon="9.6412297">
        <ele>68.43085737482241</ele>
      </trkpt>
      <trkpt lat="44.1446011" lon="9.6410948">
        <ele>72.63358793263669</ele>
      </trkpt>
      <trkpt lat="44.1446566" lon="9.6409977">
        <ele>75.67036034278661</ele>
      </trkpt>
      <trkpt lat="44.1446247" lon="9.6409411">
        <ele>76.64395997298581</ele>
      </trkpt>
      <trkpt lat="44.1445986" lon="9.6408555">
        <ele>78.22176380902602</ele>
      </trkpt>
      <trkpt lat="44.1446106" lon="9.640838">
        <ele>78.82853217623367</ele>
      </trkpt>
      <trkpt lat="44.1445966" lon="9.6408178">
        <ele>79.07455327144854</ele>
      </trkpt>
      <trkpt lat="44.1445737" lon="9.6407701">
        <ele>79.78885987005091</ele>
      </trkpt>
      <trkpt lat="44.1445817" lon="9.6406976">
        <ele>81.69346826607267</ele>
      </trkpt>
      <trkpt lat="44.1446312" lon="9.6405225">
        <ele>86.53332757945255</ele>
      </trkpt>
      <trkpt lat="44.1446657" lon="9.6405202">
        <ele>87.07247813296652</ele>
      </trkpt>
      <trkpt lat="44.1446774" lon="9.6404663">
        <ele>88.42418573997043</ele>
      </trkpt>
      <trkpt lat="44.1446954" lon="9.6403893">
        <ele>90.38251619376484</ele>
      </trkpt>
      <trkpt lat="44.1447046" lon="9.6403273">
        <ele>91.94613132998492</ele>
      </trkpt>
      <trkpt lat="44.1447591" lon="9.6401375">
        <ele>97.24260639422714</ele>
      </trkpt>
      <trkpt lat="44.1448164" lon="9.6400149">
        <ele>101.12276448905502</ele>
      </trkpt>
      <trkpt lat="44.1450368" lon="9.6394601">
        <ele>113.79887179622804</ele>
      </trkpt>
      <trkpt lat="44.1450599" lon="9.6393765">
        <ele>114.74318505057866</ele>
      </trkpt>
      <trkpt lat="44.1449817" lon="9.6391535">
        <ele>118.75437438702463</ele>
      </trkpt>
      <trkpt lat="44.144958" lon="9.63868">
        <ele>123.58847938041423</ele>
      </trkpt>
      <trkpt lat="44.1449324" lon="9.6385137">
        <ele>124.52760553688378</ele>
      </trkpt>
      <trkpt lat="44.1448939" lon="9.6384079">
        <ele>125.79015363677287</ele>
      </trkpt>
      <trkpt lat="44.1448487" lon="9.6383802">
        <ele>127.44664584236014</ele>
      </trkpt>
      <trkpt lat="44.1448133" lon="9.6382439">
        <ele>128.64984226380548</ele>
      </trkpt>
      <trkpt lat="44.144773" lon="9.6382358">
        <ele>130.1284855938349</ele>
      </trkpt>
      <trkpt lat="44.1447465" lon="9.6382345">
        <ele>131.0809379455644</ele>
      </trkpt>
      <trkpt lat="44.1447232" lon="9.6382818">
        <ele>131.81836137068822</ele>
      </trkpt>
      <trkpt lat="44.1447054" lon="9.6383624">
        <ele>132.3450696156195</ele>
      </trkpt>
      <trkpt lat="44.1446882" lon="9.6384622">
        <ele>132.64901505975368</ele>
      </trkpt>
      <trkpt lat="44.1446711" lon="9.6384643">
        <ele>133.15879180003964</ele>
      </trkpt>
      <trkpt lat="44.1445645" lon="9.6383968">
        <ele>135.65627744023342</ele>
      </trkpt>
      <trkpt lat="44.1444651" lon="9.6382653">
        <ele>138.4650422802057</ele>
      </trkpt>
      <trkpt lat="44.1443444" lon="9.6381485">
        <ele>141.50971111516586</ele>
      </trkpt>
      <trkpt lat="44.1442769" lon="9.6379845">
        <ele>144.7654161077365</ele>
      </trkpt>
      <trkpt lat="44.144234" lon="9.6377653">
        <ele>149.77431428134133</ele>
      </trkpt>
      <trkpt lat="44.1441505" lon="9.6377019">
        <ele>152.89022677467725</ele>
      </trkpt>
      <trkpt lat="44.1441391" lon="9.6375277">
        <ele>156.7885181166766</ele>
      </trkpt>
      <trkpt lat="44.1441353" lon="9.6374377">
        <ele>158.77959202308526</ele>
      </trkpt>
      <trkpt lat="44.144099" lon="9.6374184">
        <ele>159.83808186791822</ele>
      </trkpt>
      <trkpt lat="44.144046" lon="9.6374197">
        <ele>160.741347983553</ele>
      </trkpt>
      <trkpt lat="44.1439767" lon="9.6373782">
        <ele>163.01672566922042</ele>
      </trkpt>
      <trkpt lat="44.143943" lon="9.6372985">
        <ele>165.88901335776603</ele>
      </trkpt>
      <trkpt lat="44.1439361" lon="9.6371733">
        <ele>170.22190944425932</ele>
      </trkpt>
      <trkpt lat="44.1439339" lon="9.6371085">
        <ele>172.4853997759407</ele>
      </trkpt>
      <trkpt lat="44.1439287" lon="9.6370109">
        <ele>175.86847331041085</ele>
      </trkpt>
      <trkpt lat="44.1438745" lon="9.6368996">
        <ele>180.06428553479054</ele>
      </trkpt>
      <trkpt lat="44.1438093" lon="9.6368337">
        <ele>182.7995774680242</ele>
      </trkpt>
      <trkpt lat="44.143684" lon="9.636835">
        <ele>183.82804854210906</ele>
      </trkpt>
      <trkpt lat="44.1436227" lon="9.6368022">
        <ele>185.1266206786799</ele>
      </trkpt>
      <trkpt lat="44.1435397" lon="9.6366514">
        <ele>190.8041557871148</ele>
      </trkpt>
      <trkpt lat="44.1434379" lon="9.6364909">
        <ele>195.93318841746725</ele>
      </trkpt>
      <trkpt lat="44.143397" lon="9.6364053">
        <ele>198.5054187397861</ele>
      </trkpt>
      <trkpt lat="44.1433349" lon="9.636308">
        <ele>200.7082355291599</ele>
      </trkpt>
      <trkpt lat="44.1433664" lon="9.636193">
        <ele>203.35018414056745</ele>
      </trkpt>
      <trkpt lat="44.1433775" lon="9.6361257">
        <ele>204.77951032691254</ele>
      </trkpt>
      <trkpt lat="44.1433503" lon="9.6360573">
        <ele>206.04782344539933</ele>
      </trkpt>
      <trkpt lat="44.1433819" lon="9.6359736">
        <ele>208.11729638176652</ele>
      </trkpt>
      <trkpt lat="44.1434075" lon="9.6357733">
        <ele>213.16149090853253</ele>
      </trkpt>
      <trkpt lat="44.143409" lon="9.6356196">
        <ele>216.68474630818008</ele>
      </trkpt>
      <trkpt lat="44.1433811" lon="9.635517">
        <ele>219.5178185645996</ele>
      </trkpt>
      <trkpt lat="44.1433575" lon="9.6354972">
        <ele>220.4909664611704</ele>
      </trkpt>
      <trkpt lat="44.143324" lon="9.6354845">
        <ele>221.56890371462185</ele>
      </trkpt>
      <trkpt lat="44.1432297" lon="9.6354686">
        <ele>224.21453461212673</ele>
      </trkpt>
      <trkpt lat="44.1431714" lon="9.6354488">
        <ele>225.48896051249218</ele>
      </trkpt>
      <trkpt lat="44.1431126" lon="9.6353795">
        <ele>228.86547211265315</ele>
      </trkpt>
      <trkpt lat="44.1430939" lon="9.635357">
        <ele>230.05932564715275</ele>
      </trkpt>
      <trkpt lat="44.1430943" lon="9.635327">
        <ele>230.80540456303362</ele>
      </trkpt>
      <trkpt lat="44.1431155" lon="9.63529">
        <ele>231.18422023132877</ele>
      </trkpt>
      <trkpt lat="44.1431208" lon="9.6352576">
        <ele>231.77564874885428</ele>
      </trkpt>
      <trkpt lat="44.1431112" lon="9.6352363">
        <ele>232.48890656481632</ele>
      </trkpt>
      <trkpt lat="44.1430838" lon="9.6352102">
        <ele>233.81256132710462</ele>
      </trkpt>
      <trkpt lat="44.1429735" lon="9.6351258">
        <ele>239.086013834157</ele>
      </trkpt>
      <trkpt lat="44.1428877" lon="9.6349376">
        <ele>249.12767258895875</ele>
      </trkpt>
      <trkpt lat="44.142741" lon="9.6347831">
        <ele>260.9346318257511</ele>
      </trkpt>
      <trkpt lat="44.1427104" lon="9.6347016">
        <ele>264.92719625003264</ele>
      </trkpt>
      <trkpt lat="44.1426506" lon="9.6346422">
        <ele>267.76311140927913</ele>
      </trkpt>
      <trkpt lat="44.1426055" lon="9.6346142">
        <ele>269.264078375297</ele>
      </trkpt>
      <trkpt lat="44.1425257" lon="9.6346552">
        <ele>266.6004212339258</ele>
      </trkpt>
      <trkpt lat="44.1423787" lon="9.6346673">
        <ele>262.2645524518096</ele>
      </trkpt>
      <trkpt lat="44.1422228" lon="9.6346295">
        <ele>261.7662629132904</ele>
      </trkpt>
      <trkpt lat="44.1421363" lon="9.6345597">
        <ele>265.73665316249185</ele>
      </trkpt>
      <trkpt lat="44.1420766" lon="9.6344263">
        <ele>274.551158394801</ele>
      </trkpt>
      <trkpt lat="44.1420081" lon="9.6343858">
        <ele>277.40554124726964</ele>
      </trkpt>
      <trkpt lat="44.1418978" lon="9.6343172">
        <ele>281.9553772179422</ele>
      </trkpt>
      <trkpt lat="44.1417952" lon="9.6342571">
        <ele>285.35648231779436</ele>
      </trkpt>
      <trkpt lat="44.1417244" lon="9.6342018">
        <ele>287.730552805874</ele>
      </trkpt>
      <trkpt lat="44.1416408" lon="9.6341675">
        <ele>288.8970316983733</ele>
      </trkpt>
      <trkpt lat="44.1415554" lon="9.6341804">
        <ele>287.58669210092665</ele>
      </trkpt>
      <trkpt lat="44.1414622" lon="9.6341943">
        <ele>286.1112283903181</ele>
      </trkpt>
      <trkpt lat="44.1413613" lon="9.6342538">
        <ele>282.75648730855977</ele>
      </trkpt>
      <trkpt lat="44.1412836" lon="9.6343107">
        <ele>281.2714627865688</ele>
      </trkpt>
      <trkpt lat="44.1412046" lon="9.6343308">
        <ele>281.8721544265178</ele>
      </trkpt>
      <trkpt lat="44.1410909" lon="9.6343447">
        <ele>283.1358095227518</ele>
      </trkpt>
      <trkpt lat="44.140981" lon="9.6343362">
        <ele>285.0803957862047</ele>
      </trkpt>
      <trkpt lat="44.1408463" lon="9.6343159">
        <ele>289.03224512601605</ele>
      </trkpt>
      <trkpt lat="44.1407302" lon="9.6342586">
        <ele>295.4541160150976</ele>
      </trkpt>
      <trkpt lat="44.140637" lon="9.6342881">
        <ele>297.2111595861328</ele>
      </trkpt>
      <trkpt lat="44.1405301" lon="9.6342907">
        <ele>299.491433462938</ele>
      </trkpt>
      <trkpt lat="44.1403631" lon="9.6342705">
        <ele>302.27802877164135</ele>
      </trkpt>
      <trkpt lat="44.140152" lon="9.6342777">
        <ele>302.6012806017234</ele>
      </trkpt>
      <trkpt lat="44.140144" lon="9.6342366">
        <ele>302.1066896983622</ele>
      </trkpt>
      <trkpt lat="44.1401388" lon="9.6340817">
        <ele>300.3699776150362</ele>
      </trkpt>
      <trkpt lat="44.1401454" lon="9.634012">
        <ele>300.31846552774425</ele>
      </trkpt>
      <trkpt lat="44.1401705" lon="9.6339905">
        <ele>301.01954397251916</ele>
      </trkpt>
      <trkpt lat="44.1402408" lon="9.633961">
        <ele>302.7241449200196</ele>
      </trkpt>
      <trkpt lat="44.1402966" lon="9.6338725">
        <ele>304.21462956984976</ele>
      </trkpt>
      <trkpt lat="44.1403389" lon="9.6337062">
        <ele>305.9374986079699</ele>
      </trkpt>
      <trkpt lat="44.1404121" lon="9.6336418">
        <ele>307.80309609506213</ele>
      </trkpt>
      <trkpt lat="44.1404506" lon="9.633564">
        <ele>308.8039518274566</ele>
      </trkpt>
      <trkpt lat="44.1404833" lon="9.6334326">
        <ele>309.4777692791411</ele>
      </trkpt>
      <trkpt lat="44.1405429" lon="9.6333629">
        <ele>310.43151325313295</ele>
      </trkpt>
      <trkpt lat="44.1406257" lon="9.6333522">
        <ele>312.37880133482946</ele>
      </trkpt>
      <trkpt lat="44.1407085" lon="9.6333294">
        <ele>313.7831396170203</ele>
      </trkpt>
      <trkpt lat="44.140825" lon="9.6333039">
        <ele>315.17659385289227</ele>
      </trkpt>
      <trkpt lat="44.1408532" lon="9.6332083">
        <ele>315.68366924991636</ele>
      </trkpt>
      <trkpt lat="44.1408955" lon="9.6330619">
        <ele>315.67023580919573</ele>
      </trkpt>
      <trkpt lat="44.1409833" lon="9.6329084">
        <ele>314.1737747218002</ele>
      </trkpt>
      <trkpt lat="44.141077" lon="9.6327711">
        <ele>313.26692776594297</ele>
      </trkpt>
      <trkpt lat="44.1411498" lon="9.6326925">
        <ele>312.81571062902594</ele>
      </trkpt>
      <trkpt lat="44.1412266" lon="9.632545">
        <ele>311.7215377152868</ele>
      </trkpt>
      <trkpt lat="44.1412666" lon="9.63246">
        <ele>311.2846012048545</ele>
      </trkpt>
      <trkpt lat="44.1413288" lon="9.6323583">
        <ele>311.09689243946116</ele>
      </trkpt>
      <trkpt lat="44.1413677" lon="9.6322695">
        <ele>310.41590374100076</ele>
      </trkpt>
      <trkpt lat="44.1414249" lon="9.632181">
        <ele>310.37045062737286</ele>
      </trkpt>
      <trkpt lat="44.1414818" lon="9.6321014">
        <ele>310.2434832115683</ele>
      </trkpt>
      <trkpt lat="44.1415388" lon="9.6320182">
        <ele>309.35534073645954</ele>
      </trkpt>
      <trkpt lat="44.1415858" lon="9.6319533">
        <ele>308.65620528188225</ele>
      </trkpt>
      <trkpt lat="44.1416387" lon="9.631879">
        <ele>307.90713133948697</ele>
      </trkpt>
      <trkpt lat="44.1417409" lon="9.6317688">
        <ele>307.92009388686205</ele>
      </trkpt>
      <trkpt lat="44.1418283" lon="9.6316365">
        <ele>306.51468302767387</ele>
      </trkpt>
      <trkpt lat="44.1419516" lon="9.6315154">
        <ele>310.13357418028403</ele>
      </trkpt>
      <trkpt lat="44.1420139" lon="9.6314037">
        <ele>310.3550736207545</ele>
      </trkpt>
      <trkpt lat="44.1421194" lon="9.6312982">
        <ele>312.1316495345228</ele>
      </trkpt>
      <trkpt lat="44.1422274" lon="9.6312003">
        <ele>313.750737681278</ele>
      </trkpt>
      <trkpt lat="44.1423296" lon="9.6310935">
        <ele>314.74410906717554</ele>
      </trkpt>
      <trkpt lat="44.1423867" lon="9.6309381">
        <ele>310.474017511682</ele>
      </trkpt>
      <trkpt lat="44.1424234" lon="9.6307443">
        <ele>304.39241827239624</ele>
      </trkpt>
      <trkpt lat="44.1424848" lon="9.6305387">
        <ele>299.3186258296702</ele>
      </trkpt>
      <trkpt lat="44.1425501" lon="9.6303157">
        <ele>294.17543117115383</ele>
      </trkpt>
      <trkpt lat="44.1425829" lon="9.6301266">
        <ele>289.0865300923122</ele>
      </trkpt>
      <trkpt lat="44.1426431" lon="9.6299915">
        <ele>287.01201505204733</ele>
      </trkpt>
      <trkpt lat="44.1427203" lon="9.6298711">
        <ele>286.0663123210654</ele>
      </trkpt>
      <trkpt lat="44.1429017" lon="9.6296926">
        <ele>287.4541010750416</ele>
      </trkpt>
      <trkpt lat="44.1430304" lon="9.6296387">
        <ele>290.4272535770344</ele>
      </trkpt>
      <trkpt lat="44.143138" lon="9.6295165">
        <ele>289.32810054831225</ele>
      </trkpt>
      <trkpt lat="44.1432146" lon="9.6295141">
        <ele>290.9719236143511</ele>
      </trkpt>
      <trkpt lat="44.1433892" lon="9.6294614">
        <ele>288.85017654229745</ele>
      </trkpt>
      <trkpt lat="44.1434852" lon="9.629418">
        <ele>286.67071285574525</ele>
      </trkpt>
      <trkpt lat="44.1435806" lon="9.6293408">
        <ele>282.6849463944016</ele>
      </trkpt>
      <trkpt lat="44.1436355" lon="9.6292388">
        <ele>278.42014174593226</ele>
      </trkpt>
      <trkpt lat="44.1437597" lon="9.6289806">
        <ele>268.11663513900464</ele>
      </trkpt>
      <trkpt lat="44.143907" lon="9.6288153">
        <ele>265.3472280332828</ele>
      </trkpt>
      <trkpt lat="44.1439772" lon="9.6287245">
        <ele>263.17070815088346</ele>
      </trkpt>
      <trkpt lat="44.14406" lon="9.6285668">
        <ele>258.1748010360934</ele>
      </trkpt>
      <trkpt lat="44.1441794" lon="9.6284373">
        <ele>254.97095917297025</ele>
      </trkpt>
      <trkpt lat="44.14428" lon="9.6284085">
        <ele>255.51279188464048</ele>
      </trkpt>
      <trkpt lat="44.1443951" lon="9.6284019">
        <ele>257.1879076527759</ele>
      </trkpt>
      <trkpt lat="44.1444999" lon="9.6284027">
        <ele>259.1661776869539</ele>
      </trkpt>
      <trkpt lat="44.1446791" lon="9.6284674">
        <ele>265.7082533244131</ele>
      </trkpt>
      <trkpt lat="44.1447878" lon="9.6284651">
        <ele>266.06500221042995</ele>
      </trkpt>
      <trkpt lat="44.1449161" lon="9.628376">
        <ele>260.3247834778033</ele>
      </trkpt>
      <trkpt lat="44.1450299" lon="9.6283488">
        <ele>257.3261015041635</ele>
      </trkpt>
      <trkpt lat="44.1451937" lon="9.6284303">
        <ele>259.59749171950114</ele>
      </trkpt>
      <trkpt lat="44.1453758" lon="9.6285239">
        <ele>260.89587527264064</ele>
      </trkpt>
      <trkpt lat="44.1454907" lon="9.628601">
        <ele>260.6156760666055</ele>
      </trkpt>
      <trkpt lat="44.1455834" lon="9.6287027">
        <ele>261.00502151451144</ele>
      </trkpt>
      <trkpt lat="44.1456406" lon="9.6287186">
        <ele>260.65106189148617</ele>
      </trkpt>
      <trkpt lat="44.1456998" lon="9.6287135">
        <ele>259.75732090310225</ele>
      </trkpt>
      <trkpt lat="44.1458417" lon="9.6286904">
        <ele>258.0853857539213</ele>
      </trkpt>
      <trkpt lat="44.1459428" lon="9.6286505">
        <ele>257.5279486674356</ele>
      </trkpt>
      <trkpt lat="44.1460561" lon="9.6285536">
        <ele>255.7574916318072</ele>
      </trkpt>
      <trkpt lat="44.146223" lon="9.6283873">
        <ele>252.50694575152056</ele>
      </trkpt>
      <trkpt lat="44.1463514" lon="9.6282258">
        <ele>249.50965981228495</ele>
      </trkpt>
      <trkpt lat="44.1464547" lon="9.6280839">
        <ele>247.71417425595413</ele>
      </trkpt>
      <trkpt lat="44.1465039" lon="9.6280226">
        <ele>247.28151928930026</ele>
      </trkpt>
      <trkpt lat="44.1465211" lon="9.6279448">
        <ele>245.99220869596442</ele>
      </trkpt>
      <trkpt lat="44.1465088" lon="9.6277371">
        <ele>241.9037213647276</ele>
      </trkpt>
      <trkpt lat="44.1464757" lon="9.627646">
        <ele>239.54561830395923</ele>
      </trkpt>
      <trkpt lat="44.1464318" lon="9.6274449">
        <ele>236.86174866897184</ele>
      </trkpt>
      <trkpt lat="44.1464134" lon="9.627344">
        <ele>236.11261251963953</ele>
      </trkpt>
      <trkpt lat="44.146386" lon="9.6273154">
        <ele>235.384505584734</ele>
      </trkpt>
      <trkpt lat="44.1462814" lon="9.6272131">
        <ele>232.99833678110886</ele>
      </trkpt>
      <trkpt lat="44.1462531" lon="9.6271126">
        <ele>233.05590396956404</ele>
      </trkpt>
      <trkpt lat="44.1462123" lon="9.627002">
        <ele>232.83528414536278</ele>
      </trkpt>
      <trkpt lat="44.1461577" lon="9.626869">
        <ele>232.47506462126123</ele>
      </trkpt>
      <trkpt lat="44.1460215" lon="9.6266114">
        <ele>230.78685907989353</ele>
      </trkpt>
      <trkpt lat="44.1459368" lon="9.6263721">
        <ele>230.0147376837219</ele>
      </trkpt>
      <trkpt lat="44.1458851" lon="9.6262456">
        <ele>229.13953900736033</ele>
      </trkpt>
      <trkpt lat="44.1458548" lon="9.6261072">
        <ele>228.130098908489</ele>
      </trkpt>
      <trkpt lat="44.1458495" lon="9.626027">
        <ele>227.91965434666514</ele>
      </trkpt>
      <trkpt lat="44.1458656" lon="9.6259452">
        <ele>228.41823292961456</ele>
      </trkpt>
      <trkpt lat="44.1458515" lon="9.6257875">
        <ele>227.6441031645059</ele>
      </trkpt>
      <trkpt lat="44.1458206" lon="9.6256314">
        <ele>226.17960860431205</ele>
      </trkpt>
      <trkpt lat="44.1457596" lon="9.625484">
        <ele>224.08255962376978</ele>
      </trkpt>
      <trkpt lat="44.1457109" lon="9.6254021">
        <ele>222.5173246214642</ele>
      </trkpt>
      <trkpt lat="44.1456879" lon="9.625304">
        <ele>221.84801102548707</ele>
      </trkpt>
      <trkpt lat="44.1456349" lon="9.6251795">
        <ele>220.28237358534656</ele>
      </trkpt>
      <trkpt lat="44.1456111" lon="9.6250779">
        <ele>219.67289365895567</ele>
      </trkpt>
      <trkpt lat="44.1456587" lon="9.6249672">
        <ele>221.5411157837143</ele>
      </trkpt>
      <trkpt lat="44.1456723" lon="9.6248959">
        <ele>221.50640694377972</ele>
      </trkpt>
      <trkpt lat="44.145737" lon="9.6247425">
        <ele>222.7849684886561</ele>
      </trkpt>
      <trkpt lat="44.1458922" lon="9.624597">
        <ele>225.63469843810748</ele>
      </trkpt>
      <trkpt lat="44.1460451" lon="9.6244215">
        <ele>224.35462433346584</ele>
      </trkpt>
      <trkpt lat="44.1463377" lon="9.6242006">
        <ele>223.53334732189154</ele>
      </trkpt>
      <trkpt lat="44.1465328" lon="9.6240513">
        <ele>226.53105187923697</ele>
      </trkpt>
      <trkpt lat="44.1466614" lon="9.6238997">
        <ele>227.76647528680112</ele>
      </trkpt>
      <trkpt lat="44.1468156" lon="9.6235827">
        <ele>223.1173242676167</ele>
      </trkpt>
      <trkpt lat="44.146947" lon="9.6233471">
        <ele>218.92668221421954</ele>
      </trkpt>
      <trkpt lat="44.1471294" lon="9.6231515">
        <ele>221.40830603723964</ele>
      </trkpt>
      <trkpt lat="44.1472432" lon="9.6230146">
        <ele>223.08932294491763</ele>
      </trkpt>
      <trkpt lat="44.1473055" lon="9.6229613">
        <ele>224.86481870138135</ele>
      </trkpt>
      <trkpt lat="44.1473358" lon="9.6228723">
        <ele>223.85471872054595</ele>
      </trkpt>
      <trkpt lat="44.1472948" lon="9.6226759">
        <ele>215.75587251950168</ele>
      </trkpt>
      <trkpt lat="44.1472882" lon="9.6225804">
        <ele>212.2462569786705</ele>
      </trkpt>
      <trkpt lat="44.1473008" lon="9.6224897">
        <ele>209.82523744634852</ele>
      </trkpt>
      <trkpt lat="44.1473391" lon="9.6224074">
        <ele>208.97234343697878</ele>
      </trkpt>
      <trkpt lat="44.1473862" lon="9.622354">
        <ele>209.20581003967774</ele>
      </trkpt>
      <trkpt lat="44.147457" lon="9.6222999">
        <ele>210.42350297764543</ele>
      </trkpt>
      <trkpt lat="44.1476029" lon="9.6222626">
        <ele>215.89366847179565</ele>
      </trkpt>
      <trkpt lat="44.1477696" lon="9.6221548">
        <ele>219.48977720963347</ele>
      </trkpt>
      <trkpt lat="44.1478982" lon="9.6220896">
        <ele>223.18029363630396</ele>
      </trkpt>
      <trkpt lat="44.1480429" lon="9.6220467">
        <ele>230.69496487284079</ele>
      </trkpt>
      <trkpt lat="44.1481724" lon="9.6220037">
        <ele>235.06635665630066</ele>
      </trkpt>
      <trkpt lat="44.1482529" lon="9.6219324">
        <ele>233.36830638015414</ele>
      </trkpt>
      <trkpt lat="44.1483525" lon="9.6217359">
        <ele>225.9335873489274</ele>
      </trkpt>
      <trkpt lat="44.1484153" lon="9.6215991">
        <ele>221.58228869025768</ele>
      </trkpt>
      <trkpt lat="44.1485098" lon="9.6214887">
        <ele>220.35232575655158</ele>
      </trkpt>
      <trkpt lat="44.1486817" lon="9.6213314">
        <ele>222.68560549332878</ele>
      </trkpt>
      <trkpt lat="44.1487351" lon="9.6212688">
        <ele>223.40588095821505</ele>
      </trkpt>
      <trkpt lat="44.1488519" lon="9.6211267">
        <ele>224.59558810205306</ele>
      </trkpt>
      <trkpt lat="44.1489695" lon="9.6209307">
        <ele>222.9867672584818</ele>
      </trkpt>
      <trkpt lat="44.1490845" lon="9.6208048">
        <ele>223.75964700603018</ele>
      </trkpt>
      <trkpt lat="44.1491572" lon="9.6206686">
        <ele>221.0711827243528</ele>
      </trkpt>
      <trkpt lat="44.1492342" lon="9.6205747">
        <ele>220.31076788034392</ele>
      </trkpt>
      <trkpt lat="44.1493429" lon="9.6205622">
        <ele>224.9303126747484</ele>
      </trkpt>
      <trkpt lat="44.1495339" lon="9.6206095">
        <ele>236.37596214470926</ele>
      </trkpt>
      <trkpt lat="44.1497343" lon="9.6205244">
        <ele>241.9109014432882</ele>
      </trkpt>
      <trkpt lat="44.1499622" lon="9.620518">
        <ele>249.13765635548265</ele>
      </trkpt>
      <trkpt lat="44.1500201" lon="9.6204521">
        <ele>246.52215905282685</ele>
      </trkpt>
      <trkpt lat="44.1500919" lon="9.6204071">
        <ele>245.22579526814974</ele>
      </trkpt>
      <trkpt lat="44.1504117" lon="9.620259">
        <ele>247.37301703444749</ele>
      </trkpt>
      <trkpt lat="44.1506201" lon="9.6200908">
        <ele>246.5718774789876</ele>
      </trkpt>
      <trkpt lat="44.150689" lon="9.6200741">
        <ele>248.8108052771553</ele>
      </trkpt>
      <trkpt lat="44.1509067" lon="9.6201452">
        <ele>254.24920035541595</ele>
      </trkpt>
      <trkpt lat="44.1510639" lon="9.6202085">
        <ele>256.11603020799123</ele>
      </trkpt>
      <trkpt lat="44.1512196" lon="9.6202767">
        <ele>257.291183482839</ele>
      </trkpt>
      <trkpt lat="44.1514014" lon="9.6203865">
        <ele>257.90282873823213</ele>
      </trkpt>
      <trkpt lat="44.1514519" lon="9.6204132">
        <ele>258.7678634623835</ele>
      </trkpt>
      <trkpt lat="44.1515199" lon="9.6204107">
        <ele>258.4498084259008</ele>
      </trkpt>
      <trkpt lat="44.1515535" lon="9.6203781">
        <ele>256.53650931838513</ele>
      </trkpt>
      <trkpt lat="44.1516088" lon="9.6203506">
        <ele>254.70196682040182</ele>
      </trkpt>
      <trkpt lat="44.1516715" lon="9.6203736">
        <ele>255.69759661648817</ele>
      </trkpt>
      <trkpt lat="44.1517382" lon="9.6203606">
        <ele>254.48824898137485</ele>
      </trkpt>
      <trkpt lat="44.1517774" lon="9.6202996">
        <ele>250.8585006163605</ele>
      </trkpt>
      <trkpt lat="44.1518262" lon="9.6202492">
        <ele>247.9048093766515</ele>
      </trkpt>
      <trkpt lat="44.1518849" lon="9.6202375">
        <ele>247.05587691023686</ele>
      </trkpt>
      <trkpt lat="44.1519486" lon="9.6202681">
        <ele>248.30352106825143</ele>
      </trkpt>
      <trkpt lat="44.152036" lon="9.6202804">
        <ele>248.48372507386242</ele>
      </trkpt>
      <trkpt lat="44.1521224" lon="9.6202247">
        <ele>245.51317673488563</ele>
      </trkpt>
      <trkpt lat="44.1522343" lon="9.6201366">
        <ele>240.58521491359068</ele>
      </trkpt>
      <trkpt lat="44.1523575" lon="9.6200765">
        <ele>236.0261698379247</ele>
      </trkpt>
      <trkpt lat="44.1524411" lon="9.6200736">
        <ele>232.6794142887004</ele>
      </trkpt>
      <trkpt lat="44.1525432" lon="9.6201004">
        <ele>230.31389111990214</ele>
      </trkpt>
      <trkpt lat="44.1526517" lon="9.6201223">
        <ele>229.01537220547962</ele>
      </trkpt>
      <trkpt lat="44.1527484" lon="9.6200869">
        <ele>225.47346904780804</ele>
      </trkpt>
      <trkpt lat="44.1527942" lon="9.6200564">
        <ele>223.01777996005484</ele>
      </trkpt>
      <trkpt lat="44.1528387" lon="9.6200113">
        <ele>219.84114852629227</ele>
      </trkpt>
      <trkpt lat="44.1529051" lon="9.6199231">
        <ele>214.39721853078882</ele>
      </trkpt>
      <trkpt lat="44.152928" lon="9.6198513">
        <ele>210.54052486066234</ele>
      </trkpt>
      <trkpt lat="44.1529524" lon="9.6197697">
        <ele>206.56893437540904</ele>
      </trkpt>
      <trkpt lat="44.1529614" lon="9.6194847">
        <ele>196.0841286021715</ele>
      </trkpt>
      <trkpt lat="44.1529514" lon="9.6192418">
        <ele>189.98651830811735</ele>
      </trkpt>
      <trkpt lat="44.1529404" lon="9.6190794">
        <ele>186.19617496616132</ele>
      </trkpt>
      <trkpt lat="44.1530164" lon="9.6189134">
        <ele>185.43950277232491</ele>
      </trkpt>
      <trkpt lat="44.1531292" lon="9.6188252">
        <ele>186.54431860647233</ele>
      </trkpt>
      <trkpt lat="44.1531857" lon="9.6187019">
        <ele>185.4031648973472</ele>
      </trkpt>
      <trkpt lat="44.1532006" lon="9.618572">
        <ele>183.02847088512786</ele>
      </trkpt>
      <trkpt lat="44.153239" lon="9.6181732">
        <ele>172.84558479024108</ele>
      </trkpt>
      <trkpt lat="44.1532838" lon="9.6179037">
        <ele>166.15101206421136</ele>
      </trkpt>
      <trkpt lat="44.1533373" lon="9.6177227">
        <ele>162.8825172054406</ele>
      </trkpt>
      <trkpt lat="44.1534028" lon="9.6176109">
        <ele>162.2607712642073</ele>
      </trkpt>
      <trkpt lat="44.1534767" lon="9.6175015">
        <ele>162.25478227271321</ele>
      </trkpt>
      <trkpt lat="44.1536116" lon="9.6173754">
        <ele>164.03227224242994</ele>
      </trkpt>
      <trkpt lat="44.1536752" lon="9.6173612">
        <ele>165.91908924526348</ele>
      </trkpt>
      <trkpt lat="44.1537467" lon="9.617367">
        <ele>168.80757381434154</ele>
      </trkpt>
      <trkpt lat="44.1537748" lon="9.6173551">
        <ele>169.80683053117295</ele>
      </trkpt>
      <trkpt lat="44.1538164" lon="9.6173153">
        <ele>170.96202828311374</ele>
      </trkpt>
      <trkpt lat="44.1538705" lon="9.6172172">
        <ele>171.45241878507724</ele>
      </trkpt>
      <trkpt lat="44.1539348" lon="9.6170546">
        <ele>170.8485572757208</ele>
      </trkpt>
      <trkpt lat="44.1539881" lon="9.6169205">
        <ele>170.22279785117183</ele>
      </trkpt>
      <trkpt lat="44.1540663" lon="9.6167971">
        <ele>171.20157344387871</ele>
      </trkpt>
      <trkpt lat="44.1541109" lon="9.6167147">
        <ele>171.75055767241963</ele>
      </trkpt>
      <trkpt lat="44.154138" lon="9.6165959">
        <ele>170.72747053289834</ele>
      </trkpt>
      <trkpt lat="44.1541231" lon="9.6164749">
        <ele>167.77018748761625</ele>
      </trkpt>
      <trkpt lat="44.154131" lon="9.6164079">
        <ele>166.8932483858905</ele>
      </trkpt>
      <trkpt lat="44.1541631" lon="9.6163318">
        <ele>167.04772126642183</ele>
      </trkpt>
      <trkpt lat="44.1542322" lon="9.6162144">
        <ele>167.7540732092925</ele>
      </trkpt>
      <trkpt lat="44.1543327" lon="9.6159599">
        <ele>165.81259984132515</ele>
      </trkpt>
      <trkpt lat="44.1544971" lon="9.6156697">
        <ele>166.22485333345935</ele>
      </trkpt>
      <trkpt lat="44.1547096" lon="9.6153834">
        <ele>167.87054916676237</ele>
      </trkpt>
      <trkpt lat="44.1548322" lon="9.6152681">
        <ele>169.979699767056</ele>
      </trkpt>
      <trkpt lat="44.1549109" lon="9.6151375">
        <ele>169.6791975307056</ele>
      </trkpt>
      <trkpt lat="44.1550169" lon="9.614939">
        <ele>168.46749939858</ele>
      </trkpt>
      <trkpt lat="44.1550813" lon="9.6147872">
        <ele>167.17558478311676</ele>
      </trkpt>
      <trkpt lat="44.1551878" lon="9.6144908">
        <ele>164.8824147737613</ele>
      </trkpt>
      <trkpt lat="44.1552769" lon="9.6144163">
        <ele>167.45962603340965</ele>
      </trkpt>
      <trkpt lat="44.1553504" lon="9.6143735">
        <ele>170.12605673977282</ele>
      </trkpt>
      <trkpt lat="44.1554157" lon="9.6142957">
        <ele>172.19679085323622</ele>
      </trkpt>
      <trkpt lat="44.1555614" lon="9.6140135">
        <ele>175.23172142533696</ele>
      </trkpt>
      <trkpt lat="44.1556653" lon="9.6137863">
        <ele>177.32557706409182</ele>
      </trkpt>
      <trkpt lat="44.1557507" lon="9.6136579">
        <ele>180.20729392245437</ele>
      </trkpt>
      <trkpt lat="44.1558645" lon="9.6134702">
        <ele>182.57149867536629</ele>
      </trkpt>
      <trkpt lat="44.1561029" lon="9.6131918">
        <ele>187.44624236354105</ele>
      </trkpt>
      <trkpt lat="44.1562482" lon="9.61302">
        <ele>189.945508003748</ele>
      </trkpt>
      <trkpt lat="44.1564412" lon="9.6128164">
        <ele>194.49120914306567</ele>
      </trkpt>
      <trkpt lat="44.1564626" lon="9.6127848">
        <ele>194.68652723247374</ele>
      </trkpt>
      <trkpt lat="44.1564613" lon="9.6126528">
        <ele>190.96631332838766</ele>
      </trkpt>
      <trkpt lat="44.1564983" lon="9.6125075">
        <ele>189.25159053330762</ele>
      </trkpt>
      <trkpt lat="44.1564725" lon="9.6123385">
        <ele>184.65766327723682</ele>
      </trkpt>
      <trkpt lat="44.156547" lon="9.6121523">
        <ele>183.17611300727617</ele>
      </trkpt>
      <trkpt lat="44.1567929" lon="9.6118975">
        <ele>183.75378693675185</ele>
      </trkpt>
      <trkpt lat="44.1568997" lon="9.6117868">
        <ele>183.70603309276868</ele>
      </trkpt>
      <trkpt lat="44.157012" lon="9.6117428">
        <ele>185.65886712505306</ele>
      </trkpt>
      <trkpt lat="44.1571357" lon="9.6117277">
        <ele>188.86518347972475</ele>
      </trkpt>
      <trkpt lat="44.1572634" lon="9.6116914">
        <ele>191.39736875337607</ele>
      </trkpt>
      <trkpt lat="44.1572823" lon="9.611665">
        <ele>191.08888026803947</ele>
      </trkpt>
      <trkpt lat="44.1572853" lon="9.6116096">
        <ele>189.41683417841577</ele>
      </trkpt>
      <trkpt lat="44.157281" lon="9.6115228">
        <ele>186.56982016182258</ele>
      </trkpt>
      <trkpt lat="44.1573055" lon="9.6114381">
        <ele>184.69072955180934</ele>
      </trkpt>
      <trkpt lat="44.1573759" lon="9.6113439">
        <ele>183.80288497193104</ele>
      </trkpt>
      <trkpt lat="44.1575437" lon="9.6112457">
        <ele>185.25837700786727</ele>
      </trkpt>
      <trkpt lat="44.1577323" lon="9.6111329">
        <ele>186.9211077313875</ele>
      </trkpt>
      <trkpt lat="44.1580469" lon="9.6111324">
        <ele>194.53588517438678</ele>
      </trkpt>
      <trkpt lat="44.1582813" lon="9.6109435">
        <ele>192.78292418352808</ele>
      </trkpt>
      <trkpt lat="44.1585876" lon="9.6106432">
        <ele>188.49994624352496</ele>
      </trkpt>
      <trkpt lat="44.1587152" lon="9.6104809">
        <ele>185.594149276455</ele>
      </trkpt>
      <trkpt lat="44.1588846" lon="9.6102183">
        <ele>181.43789444044324</ele>
      </trkpt>
      <trkpt lat="44.1590102" lon="9.6101448">
        <ele>180.75811040966119</ele>
      </trkpt>
      <trkpt lat="44.159324" lon="9.6100725">
        <ele>181.46593718324755</ele>
      </trkpt>
      <trkpt lat="44.1594178" lon="9.6100424">
        <ele>181.0461682558535</ele>
      </trkpt>
      <trkpt lat="44.1595214" lon="9.6099829">
        <ele>179.76535458634692</ele>
      </trkpt>
      <trkpt lat="44.160031" lon="9.6095824">
        <ele>171.07453253672048</ele>
      </trkpt>
      <trkpt lat="44.1602298" lon="9.6094684">
        <ele>169.04926085951814</ele>
      </trkpt>
      <trkpt lat="44.1604434" lon="9.6093685">
        <ele>166.61361205494066</ele>
      </trkpt>
      <trkpt lat="44.1606081" lon="9.6093715">
        <ele>165.44929768936825</ele>
      </trkpt>
      <trkpt lat="44.1606397" lon="9.6093129">
        <ele>163.5430140509598</ele>
      </trkpt>
      <trkpt lat="44.1606868" lon="9.6092673">
        <ele>161.74961784402947</ele>
      </trkpt>
      <trkpt lat="44.1607384" lon="9.6092483">
        <ele>160.47066787444112</ele>
      </trkpt>
      <trkpt lat="44.160774" lon="9.6092344">
        <ele>159.38819526620227</ele>
      </trkpt>
      <trkpt lat="44.1608252" lon="9.6092422">
        <ele>158.47776463787477</ele>
      </trkpt>
      <trkpt lat="44.1609965" lon="9.6093342">
        <ele>156.7456747465306</ele>
      </trkpt>
      <trkpt lat="44.1610322" lon="9.6093446">
        <ele>155.86477568028533</ele>
      </trkpt>
      <trkpt lat="44.1610798" lon="9.6093547">
        <ele>154.58930735024668</ele>
      </trkpt>
      <trkpt lat="44.1613276" lon="9.6093999">
        <ele>147.49127470558534</ele>
      </trkpt>
      <trkpt lat="44.1615148" lon="9.609425">
        <ele>142.77726476593082</ele>
      </trkpt>
      <trkpt lat="44.1615984" lon="9.6094294">
        <ele>140.9850382960617</ele>
      </trkpt>
      <trkpt lat="44.1616964" lon="9.6094045">
        <ele>138.02023287506623</ele>
      </trkpt>
      <trkpt lat="44.1617334" lon="9.6094279">
        <ele>137.81227722748542</ele>
      </trkpt>
      <trkpt lat="44.1618278" lon="9.6095032">
        <ele>137.24801830205678</ele>
      </trkpt>
      <trkpt lat="44.1619995" lon="9.609611">
        <ele>133.03356733759995</ele>
      </trkpt>
      <trkpt lat="44.1620912" lon="9.6097198">
        <ele>129.83061374459982</ele>
      </trkpt>
      <trkpt lat="44.1621194" lon="9.6097954">
        <ele>128.33806821097738</ele>
      </trkpt>
      <trkpt lat="44.1621335" lon="9.6098435">
        <ele>127.50777069438467</ele>
      </trkpt>
      <trkpt lat="44.1621669" lon="9.6099536">
        <ele>125.39485974651856</ele>
      </trkpt>
      <trkpt lat="44.1621877" lon="9.6100397">
        <ele>123.80621362822261</ele>
      </trkpt>
      <trkpt lat="44.1622041" lon="9.610147">
        <ele>121.76699930890965</ele>
      </trkpt>
      <trkpt lat="44.1622091" lon="9.6103587">
        <ele>119.45489505124897</ele>
      </trkpt>
      <trkpt lat="44.1621826" lon="9.6105289">
        <ele>120.07996337853946</ele>
      </trkpt>
      <trkpt lat="44.1620897" lon="9.610714">
        <ele>124.51089150523421</ele>
      </trkpt>
      <trkpt lat="44.1620687" lon="9.6108672">
        <ele>126.32220924972626</ele>
      </trkpt>
      <trkpt lat="44.1620716" lon="9.610966">
        <ele>126.62766108329636</ele>
      </trkpt>
      <trkpt lat="44.1621586" lon="9.6110724">
        <ele>124.14024671828415</ele>
      </trkpt>
      <trkpt lat="44.1622682" lon="9.6111535">
        <ele>121.04049769081305</ele>
      </trkpt>
      <trkpt lat="44.1623252" lon="9.6111608">
        <ele>118.70420720670455</ele>
      </trkpt>
      <trkpt lat="44.1623574" lon="9.6111649">
        <ele>117.47800638661806</ele>
      </trkpt>
      <trkpt lat="44.1624605" lon="9.6111936">
        <ele>114.21841453032161</ele>
      </trkpt>
      <trkpt lat="44.1626157" lon="9.6112569">
        <ele>109.85584165318902</ele>
      </trkpt>
      <trkpt lat="44.162963" lon="9.6116664">
        <ele>104.16022961104544</ele>
      </trkpt>
      <trkpt lat="44.1629871" lon="9.6117227">
        <ele>103.87320052865012</ele>
      </trkpt>
      <trkpt lat="44.1630061" lon="9.6117823">
        <ele>103.83527497675412</ele>
      </trkpt>
      <trkpt lat="44.1630172" lon="9.6118497">
        <ele>104.21941885841096</ele>
      </trkpt>
      <trkpt lat="44.1630432" lon="9.6120171">
        <ele>104.48493039454418</ele>
      </trkpt>
      <trkpt lat="44.1632898" lon="9.6122333">
        <ele>92.91524122189868</ele>
      </trkpt>
      <trkpt lat="44.1634285" lon="9.6123183">
        <ele>88.36223906697734</ele>
      </trkpt>
      <trkpt lat="44.1638591" lon="9.6122759">
        <ele>74.94928253619746</ele>
      </trkpt>
      <trkpt lat="44.164008" lon="9.6122084">
        <ele>69.88382140038378</ele>
      </trkpt>
      <trkpt lat="44.1641379" lon="9.6121638">
        <ele>65.30588620580549</ele>
      </trkpt>
      <trkpt lat="44.1642554" lon="9.6120415">
        <ele>62.229667627906764</ele>
      </trkpt>
      <trkpt lat="44.1643708" lon="9.6119132">
        <ele>60.07601102529154</ele>
      </trkpt>
      <trkpt lat="44.1644753" lon="9.6118409">
        <ele>57.906445035380166</ele>
      </trkpt>
      <trkpt lat="44.1646146" lon="9.6117679">
        <ele>55.85193235744759</ele>
      </trkpt>
      <trkpt lat="44.1647623" lon="9.6117447">
        <ele>53.7479965235121</ele>
      </trkpt>
      <trkpt lat="44.1649137" lon="9.6116387">
        <ele>51.86592821078375</ele>
      </trkpt>
      <trkpt lat="44.1651173" lon="9.6115368">
        <ele>48.31110663889068</ele>
      </trkpt>
      <trkpt lat="44.1652868" lon="9.6114391">
        <ele>44.7479256276974</ele>
      </trkpt>
      <trkpt lat="44.1654596" lon="9.6112291">
        <ele>40.77984297487652</ele>
      </trkpt>
      <trkpt lat="44.1655791" lon="9.6110776">
        <ele>37.88829734127481</ele>
      </trkpt>
      <trkpt lat="44.1656378" lon="9.6110248">
        <ele>36.81101091371038</ele>
      </trkpt>
      <trkpt lat="44.1657443" lon="9.6109654">
        <ele>35.39419901666797</ele>
      </trkpt>
      <trkpt lat="44.1657715" lon="9.6109592">
        <ele>35.04883326306076</ele>
      </trkpt>
      <trkpt lat="44.1657979" lon="9.6109474">
        <ele>34.67994054220654</ele>
      </trkpt>
      <trkpt lat="44.165837" lon="9.6109314">
        <ele>34.14218914257377</ele>
      </trkpt>
      <trkpt lat="44.165925" lon="9.6108788">
        <ele>32.787483862502725</ele>
      </trkpt>
      <trkpt lat="44.1661064" lon="9.6108698">
        <ele>30.44316865541068</ele>
      </trkpt>
      <trkpt lat="44.166158" lon="9.6108162">
        <ele>29.20696537267677</ele>
      </trkpt>
      <trkpt lat="44.166146" lon="9.6107693">
        <ele>29.237489624834314</ele>
      </trkpt>
      <trkpt lat="44.1661538" lon="9.6105933">
        <ele>27.225372588173553</ele>
      </trkpt>
      <trkpt lat="44.1661085" lon="9.6105347">
        <ele>26.949372091401692</ele>
      </trkpt>
      <trkpt lat="44.1661082" lon="9.610505">
        <ele>26.38264381733123</ele>
      </trkpt>
      <trkpt lat="44.1661585" lon="9.6105437">
        <ele>26.12155385739252</ele>
      </trkpt>
      <trkpt lat="44.1661531" lon="9.6105178">
        <ele>25.731357706105904</ele>
      </trkpt>
      <trkpt lat="44.166121" lon="9.6104702">
        <ele>25.464691178169574</ele>
      </trkpt>
      <trkpt lat="44.1661186" lon="9.610432">
        <ele>24.757261564676128</ele>
      </trkpt>
      <trkpt lat="44.166106" lon="9.6104085">
        <ele>24.537391206948566</ele>
      </trkpt>
      <trkpt lat="44.1660479" lon="9.6103537">
        <ele>24.487170412391677</ele>
      </trkpt>
      <trkpt lat="44.1659705" lon="9.6102371">
        <ele>23.172296961677116</ele>
      </trkpt>
      <trkpt lat="44.1659793" lon="9.6102252">
        <ele>22.69576145093946</ele>
      </trkpt>
      <trkpt lat="44.1660541" lon="9.6102707">
        <ele>22.454596546017584</ele>
      </trkpt>
      <trkpt lat="44.1660651" lon="9.6102558">
        <ele>21.85752883779771</ele>
      </trkpt>
      <trkpt lat="44.16598" lon="9.6101652">
        <ele>21.169384773075517</ele>
      </trkpt>
      <trkpt lat="44.1659875" lon="9.6101533">
        <ele>20.71847834872826</ele>
      </trkpt>
      <trkpt lat="44.1660661" lon="9.6101946">
        <ele>20.209635621349214</ele>
      </trkpt>
      <trkpt lat="44.166078" lon="9.6101597">
        <ele>19.043072623636434</ele>
      </trkpt>
      <trkpt lat="44.166086" lon="9.6101608">
        <ele>18.923213248538392</ele>
      </trkpt>
      <trkpt lat="44.1660912" lon="9.6101465">
        <ele>18.44730034984889</ele>
      </trkpt>
      <trkpt lat="44.1661126" lon="9.6100969">
        <ele>16.7596934468643</ele>
      </trkpt>
      <trkpt lat="44.1661594" lon="9.6101028">
        <ele>16.091709507870885</ele>
      </trkpt>
      <trkpt lat="44.166208" lon="9.6101381">
        <ele>16.10754749909256</ele>
      </trkpt>
      <trkpt lat="44.1663883" lon="9.6102695">
        <ele>15.608672178711519</ele>
      </trkpt>
      <trkpt lat="44.1666958" lon="9.6104106">
        <ele>12.864059547543931</ele>
      </trkpt>
      <trkpt lat="44.1671773" lon="9.6105139">
        <ele>8.777930918361708</ele>
      </trkpt>
      <trkpt lat="44.1676719" lon="9.6106305">
        <ele>5.014999172184737</ele>
      </trkpt>
      <trkpt lat="44.1677781" lon="9.6106516">
        <ele>4.4890423480896064</ele>
      </trkpt>
      <trkpt lat="44.1678496" lon="9.6106666">
        <ele>4.274249576917791</ele>
      </trkpt>
      <trkpt lat="44.1679983" lon="9.6107089">
        <ele>4.087439473765289</ele>
      </trkpt>
      <trkpt lat="44.1680818" lon="9.6107115">
        <ele>4.143942317485141</ele>
      </trkpt>
      <trkpt lat="44.1683443" lon="9.6106009">
        <ele>4.032814778238792</ele>
      </trkpt>
      <trkpt lat="44.1683903" lon="9.610525">
        <ele>4.100000000000364</ele>
      </trkpt>
      <trkpt lat="44.1684339" lon="9.610451">
        <ele>4.14404902979784</ele>
      </trkpt>
      <trkpt lat="44.1684461" lon="9.6104744">
        <ele>4.143597810285936</ele>
      </trkpt>
      <trkpt lat="44.168475" lon="9.6105119">
        <ele>4.141144148505951</ele>
      </trkpt>
      <trkpt lat="44.168481" lon="9.610524">
        <ele>4.137604809327588</ele>
      </trkpt>
      <trkpt lat="44.1685184" lon="9.6105571">
        <ele>4.161042487654842</ele>
      </trkpt>
      <trkpt lat="44.168532" lon="9.6105706">
        <ele>4.166584023017594</ele>
      </trkpt>
      <trkpt lat="44.1685507" lon="9.6105303">
        <ele>4.26201807535341</ele>
      </trkpt>
      <trkpt lat="44.168583" lon="9.610491">
        <ele>4.40605794838689</ele>
      </trkpt>
      <trkpt lat="44.1686334" lon="9.6104599">
        <ele>4.560389957111548</ele>
      </trkpt>
      <trkpt lat="44.1690707" lon="9.61019">
        <ele>5.636647360709778</ele>
      </trkpt>
      <trkpt lat="44.1690541" lon="9.6101571">
        <ele>5.610951856788289</ele>
      </trkpt>
      <trkpt lat="44.1689697" lon="9.6099903">
        <ele>5.551514093973861</ele>
      </trkpt>
      <trkpt lat="44.1689613" lon="9.6099738">
        <ele>5.522469737954692</ele>
      </trkpt>
      <trkpt lat="44.1689853" lon="9.6099439">
        <ele>5.5199687883812985</ele>
      </trkpt>
      <trkpt lat="44.168955" lon="9.6098916">
        <ele>5.333235591132793</ele>
      </trkpt>
      <trkpt lat="44.1689923" lon="9.6098543">
        <ele>5.359543178789991</ele>
      </trkpt>
      <trkpt lat="44.1689597" lon="9.6097899">
        <ele>5.103576528654105</ele>
      </trkpt>
      <trkpt lat="44.1689254" lon="9.6097085">
        <ele>4.747287685544792</ele>
      </trkpt>
      <trkpt lat="44.1691502" lon="9.6094495">
        <ele>5.492578356061204</ele>
      </trkpt>
      <trkpt lat="44.1695371" lon="9.6090255">
        <ele>8.899059146219766</ele>
      </trkpt>
      <trkpt lat="44.1696661" lon="9.60889">
        <ele>8.488174312248315</ele>
      </trkpt>
      <trkpt lat="44.17009" lon="9.6084358">
        <ele>4.446503623778419</ele>
      </trkpt>
      <trkpt lat="44.1701831" lon="9.6083298">
        <ele>4.106826437637819</ele>
      </trkpt>
      <trkpt lat="44.1708371" lon="9.6076391">
        <ele>4.5016957888390365</ele>
      </trkpt>
      <trkpt lat="44.1708556" lon="9.6076195">
        <ele>4.493289496703834</ele>
      </trkpt>
      <trkpt lat="44.1711154" lon="9.6073515">
        <ele>4.373114180475564</ele>
      </trkpt>
      <trkpt lat="44.1711258" lon="9.6073412">
        <ele>4.365643713553606</ele>
      </trkpt>
      <trkpt lat="44.1712357" lon="9.6072218">
        <ele>4.426766186581247</ele>
      </trkpt>
      <trkpt lat="44.1716017" lon="9.6068252">
        <ele>7.16706690476335</ele>
      </trkpt>
      <trkpt lat="44.1716361" lon="9.6067731">
        <ele>7.660324365833099</ele>
      </trkpt>
      <trkpt lat="44.1718652" lon="9.6064257">
        <ele>8.718312799076084</ele>
      </trkpt>
      <trkpt lat="44.1720216" lon="9.6061886">
        <ele>9.2705351596707</ele>
      </trkpt>
      <trkpt lat="44.1720731" lon="9.6061219">
        <ele>9.5776517645035</ele>
      </trkpt>
    </trkseg>
  </trk>
</gpx>
